[{"OBJECT_NAME":"STARLINK-5700","OBJECT_ID":"2023-020AQ","EPOCH":"2026-03-08T20:49:44.943456","MEAN_MOTION":15.02911944,"ECCENTRICITY":0.00011702,"INCLINATION":43.0074,"RA_OF_ASC_NODE":356.305,"ARG_OF_PERICENTER":316.9525,"MEAN_ANOMALY":43.1226,"EPHEMERIS_TYPE":0,"CLASSIFICATION_TYPE":"U","NORAD_CAT_ID":55607,"ELEMENT_SET_NO":999,"REV_AT_EPOCH":16894,"BSTAR":0.0032081373,"MEAN_MOTION_DOT":0.00043841,"MEAN_MOTION_DDOT":0},{"OBJECT_NAME":"LEMUR-2-SQUIRRELCOMM","OBJECT_ID":"2024-149DQ","EPOCH":"2026-03-09T21:26:31.466400","MEAN_MOTION":15.05887962,"ECCENTRICITY":0.00061012,"INCLINATION":97.6754,"RA_OF_ASC_NODE":150.1976,"ARG_OF_PERICENTER":42.3481,"MEAN_ANOMALY":317.8216,"EPHEMERIS_TYPE":0,"CLASSIFICATION_TYPE":"U","NORAD_CAT_ID":60578,"ELEMENT_SET_NO":999,"REV_AT_EPOCH":8545,"BSTAR":0.00060830109,"MEAN_MOTION_DOT":8.786e-5,"MEAN_MOTION_DDOT":0}]
